{
    "CCSDS_OMM_VERS": "3.0",
    "COMMENT": "GENERATED VIA SPACE-TRACK.ORG API",
    "CREATION_DATE": "2025-05-22T22:46:20",
    "ORIGINATOR": "18 SPCS",
    "OBJECT_NAME": "BEIDOU 12",
    "OBJECT_ID": "2012-018A",
    "CENTER_NAME": "EARTH",
    "REF_FRAME": "TEME",
    "TIME_SYSTEM": "UTC",
    "MEAN_ELEMENT_THEORY": "SGP4",
    "EPOCH": "2025-05-22T06:50:44.954592",
    "MEAN_MOTION": "1.86233541",
    "ECCENTRICITY": "0.00204880",
    "INCLINATION": "56.0881",
    "RA_OF_ASC_NODE": "318.0176",
    "ARG_OF_PERICENTER": "269.6153",
    "MEAN_ANOMALY": "90.1505",
    "EPHEMERIS_TYPE": "0",
    "CLASSIFICATION_TYPE": "U",
    "NORAD_CAT_ID": "38250",
    "ELEMENT_SET_NO": "999",
    "REV_AT_EPOCH": "8901",
    "BSTAR": "0.00000000000000",
    "MEAN_MOTION_DOT": "-0.00000050",
    "MEAN_MOTION_DDOT": "0.0000000000000",
    "SEMIMAJOR_AXIS": "27905.935",
    "PERIOD": "773.223",
    "APOAPSIS": "21584.973",
    "PERIAPSIS": "21470.626",
    "OBJECT_TYPE": "PAYLOAD",
    "RCS_SIZE": "LARGE",
    "COUNTRY_CODE": "PRC",
    "LAUNCH_DATE": "2012-04-29",
    "SITE": "XSC",
    "DECAY_DATE": null,
    "FILE": "4736392",
    "GP_ID": "288162123",
    "TLE_LINE0": "0 BEIDOU 12",
    "TLE_LINE1": "1 38250U 12018A   25142.28524253 -.00000050  00000-0  00000+0 0  9990",
    "TLE_LINE2": "2 38250  56.0881 318.0176 0020488 269.6153  90.1505  1.86233541 89019"
}